[{"OBJECT_NAME":"GOES 19","OBJECT_ID":"2024-119A","EPOCH":"2026-04-27T04:35:38.533344","MEAN_MOTION":1.00272942,"ECCENTRICITY":5.5e-5,"INCLINATION":0.027,"RA_OF_ASC_NODE":67.875,"ARG_OF_PERICENTER":17.0151,"MEAN_ANOMALY":124.0038,"EPHEMERIS_TYPE":0,"CLASSIFICATION_TYPE":"U","NORAD_CAT_ID":60133,"ELEMENT_SET_NO":999,"REV_AT_EPOCH":645,"BSTAR":0,"MEAN_MOTION_DOT":-2.59e-6,"MEAN_MOTION_DDOT":0},{"OBJECT_NAME":"FENGYUN 3H","OBJECT_ID":"2025-219A","EPOCH":"2026-04-27T02:15:13.050720","MEAN_MOTION":14.19944079,"ECCENTRICITY":8.53e-5,"INCLINATION":98.6742,"RA_OF_ASC_NODE":58.8648,"ARG_OF_PERICENTER":106.3308,"MEAN_ANOMALY":253.7962,"EPHEMERIS_TYPE":0,"CLASSIFICATION_TYPE":"U","NORAD_CAT_ID":65815,"ELEMENT_SET_NO":999,"REV_AT_EPOCH":3013,"BSTAR":4.7172e-5,"MEAN_MOTION_DOT":5.7e-7,"MEAN_MOTION_DDOT":0}]
